KUIPER-00112            
1 65150U 25171U   25353.15071024  .00002399  00000+0  34333-3 0  9992
2 65150  51.8997 151.7326 0009094 253.6011 106.3952 14.79973940 20992
KUIPER-00114            
1 65151U 25171V   25353.77061234  .00001825  00000+0  26832-3 0  9991
2 65151  51.8985 169.0065 0006330 190.4598 169.6233 14.79944382 20802
KUIPER-00115            
1 65152U 25171W   25353.77877106  .00001964  00000+0  28676-3 0  9997
2 65152  51.8987 161.4521 0009651 217.3290 142.7003 14.79924527 20913
KUIPER-00116            
1 65153U 25171X   25353.46955281  .00008352  00000+0  11221-2 0  9990
2 65153  51.8985 167.8647 0009665 180.9383 179.1563 14.79953888 20797
KUIPER-00118            
1 65154U 25171Y   25353.19668243 -.00001484  00000+0 -16578-3 0  9992
2 65154  51.8988 171.5250 0002043 163.5904 196.5124 14.79914905 20728
KUIPER-00119            
1 65155U 25171Z   25353.48026110  .00002079  00000+0  30192-3 0  9993
2 65155  51.8985 157.8537 0008072 211.0431 149.0055 14.79913339 20932
KUIPER-00120            
1 65762U 25217A   25353.53016036 -.00019149  00000+0 -23669-2 0  9998
2 65762  51.9011  46.3158 0011989  30.4444 329.7214 14.81981328 12881
KUIPER-00132            
1 65763U 25217B   25353.13763538  .00026959  00000+0  72689-3 0  9993
2 65763  51.8635  33.8004 0007728  38.8553 321.2988 15.37586161 13023
